OBJECT_NAME,OBJECT_ID,EPOCH,MEAN_MOTION,ECCENTRICITY,INCLINATION,RA_OF_ASC_NODE,ARG_OF_PERICENTER,MEAN_ANOMALY,EPHEMERIS_TYPE,CLASSIFICATION_TYPE,NORAD_CAT_ID,ELEMENT_SET_NO,REV_AT_EPOCH,BSTAR,MEAN_MOTION_DOT,MEAN_MOTION_DDOT
BEIDOU-2 M4,2012-018B,2026-06-06T09:09:48.312288,1.86229774,.00111,55.6678,304.4539,277.6909,82.1732,0,U,38251,999,9574,0,-.54E-6,0
ARIRANG-3 (KOMPSAT-3),2012-025B,2026-06-06T20:04:35.295168,14.62197227,.0006204,98.1172,115.4755,136.1013,224.0683,0,U,38338,999,74983,.10896E-3,.502E-5,0
METOP-B,2012-049A,2026-06-06T20:12:36.658080,14.21429911,.0002823,98.6508,209.5472,43.4880,316.6519,0,U,38771,999,71179,.66761E-4,.103E-5,0
SJ-9A,2012-056A,2026-06-06T18:58:59.472768,14.85453694,.0024081,97.6702,130.1191,293.1978,66.6702,0,U,38860,999,69804,.14359E-3,.1191E-4,0
COSMOS 2484 (RODNIK-S 6),2013-001C,2026-06-06T20:13:46.636032,12.42938995,.0027248,82.5019,228.3232,58.6144,301.7596,0,U,39059,999,60727,.41584E-3,.68E-6,0
SARAL,2013-009A,2026-06-06T20:17:41.911872,14.32853400,.0001295,98.5558,344.5441,356.8722,3.2453,0,U,39086,999,69412,.47644E-4,.86E-6,0
STRAND-1,2013-009E,2026-06-06T18:02:49.750080,14.37157162,.0007401,98.3920,338.2434,261.0768,98.9581,0,U,39090,999,69556,.11872E-3,.31E-5,0
BRITE-AUSTRIA,2013-009F,2026-06-06T18:14:53.426112,14.36537975,.0008955,98.3993,337.4545,271.7200,88.2961,0,U,39091,999,69555,.79724E-4,.191E-5,0
GAOFEN-1,2013-018A,2026-06-06T19:55:23.327904,14.76524852,.0015956,97.9091,230.1081,303.0238,56.9438,0,U,39150,999,70671,.242E-4,.118E-5,0
NEE-01 PEGASO,2013-018B,2026-06-06T14:44:01.393728,14.93609178,.0012357,98.1214,301.4159,192.5106,167.5808,0,U,39151,999,70912,.38676E-3,.4027E-4,0
PROBA-V,2013-021A,2026-06-06T15:31:16.404096,14.23594764,.0004643,98.3579,136.7740,149.0860,211.0594,0,U,39159,999,67961,.58067E-4,.91E-6,0
ARIRANG-5 (KOMPSAT-5),2013-042A,2026-06-06T20:34:20.728704,15.04553039,.0004013,97.6211,344.7026,147.9449,212.2022,0,U,39227,999,70230,.17396E-3,.2378E-4,0
GONETS-M 5,2013-048A,2026-06-06T21:24:12.750336,12.42891339,.0015729,82.4832,349.8021,234.2376,125.7241,0,U,39249,999,57760,-.24087E-3,-.24E-6,0
GONETS-M 7,2013-048C,2026-06-06T20:31:08.546592,12.42914065,.0016531,82.4900,352.7421,235.6287,124.3230,0,U,39251,999,57755,-.45889E-3,-.54E-6,0
FENGYUN 3C,2013-052A,2026-06-06T19:06:27.212256,14.15752739,.0015691,98.4974,132.1484,55.9344,304.3318,0,U,39260,999,65709,.69155E-4,.95E-6,0
CASSIOPE,2013-055A,2026-06-06T17:27:39.309120,15.24250739,.0296306,80.9143,79.4125,97.5089,265.9907,0,U,39265,999,66607,.5335E-3,.48289E-3,-.4605E-6
APRIZESAT 7,2013-066A,2026-06-06T03:38:42.718848,14.91541126,.0034355,97.7702,110.5307,247.0865,112.6726,0,U,39416,999,67958,.15777E-3,.154E-4,0
ZACUBE-1 (TSHEPISOSAT),2013-066B,2026-06-06T16:12:47.864736,15.01121821,.0039963,97.8101,119.9558,284.7807,74.8990,0,U,39417,999,67915,.38849E-3,.4996E-4,0
APRIZESAT 8,2013-066K,2026-06-06T15:34:03.119808,14.87632138,.0044969,97.8217,105.2639,322.2435,37.5629,0,U,39425,999,67810,.1414E-3,.1252E-4,0
TRITON-1,2013-066M,2026-06-06T19:52:32.528064,14.81667628,.0088372,97.8250,67.8709,268.1877,90.9213,0,U,39427,999,67255,.28204E-3,.2316E-4,0
